ONEWEB-0068             
1 45446U 20020Y   26198.90093741 -.00000311  00000+0 -91388-3 0  9994
2 45446  87.8894  14.9494 0001675  93.3053 266.8266 13.11417950306627
ONEWEB-0046             
1 45447U 20020Z   26198.89258823 -.00000382  00000+0 -11149-2 0  9991
2 45447  87.8884  14.9548 0001604  84.9584 275.1727 13.11415998306630
ONEWEB-0063             
1 45448U 20020AA  26198.92156517 -.00000013  00000+0 -73545-4 0  9994
2 45448  87.8896  14.9507 0001887  81.9772 278.1570 13.11418266306728
ONEWEB-0019             
1 45449U 20020AB  26198.88398878 -.00000015  00000+0 -77251-4 0  9998
2 45449  87.8888  14.9425 0001991  96.0953 264.0402 13.11414504306564
ONEWEB-0094             
1 45450U 20020AC  26198.88116441  .00000009  00000+0 -91210-5 0  9998
2 45450  87.9156 359.7458 0001831 100.7472 259.3866 13.17648968310355
ONEWEB-0087             
1 45451U 20020AD  26198.93146496  .00000429  00000+0  11737-2 0  9996
2 45451  87.8902  14.9254 0001603  96.5823 263.5487 13.11417744306617
ONEWEB-0082             
1 45452U 20020AE  26198.92807197  .00000297  00000+0  80123-3 0  9997
2 45452  87.8895  14.9401 0001357  90.3917 269.7367 13.11418984306707
ONEWEB-0050             
1 45453U 20020AF  26198.55690385  .00000687  00000+0  68218-4 0  9991
2 45453  88.9279 229.0850 0002584 168.1524 191.9767 14.90475850344901
ONEWEB-0034             
1 45454U 20020AG  26198.88936811 -.00000286  00000+0 -84271-3 0  9998
2 45454  87.8892  14.9569 0001793  89.8235 270.3099 13.11414631306616
ONEWEB-0060             
1 45455U 20020AH  26198.92058071 -.00000002  00000+0 -41930-4 0  9999
2 45455  87.8890  14.9463 0001338 123.4379 236.6877 13.11418369306573
ONEWEB-0086             
1 45456U 20020AJ  26198.89923685 -.00000510  00000+0 -14742-2 0  9991
2 45456  87.8893  14.9484 0001936 114.3494 245.7836 13.11417081306634
ONEWEB-0088             
1 45457U 20020AK  26198.95363590  .00000245  00000+0  65659-3 0  9999
2 45457  87.8902  14.9125 0001687  79.2076 280.9242 13.11414600306575
ONEWEB-0102             
1 47258U 20100A   26198.93378552  .00000163  00000+0  41855-3 0  9992
2 47258  87.8961 344.5614 0002146 101.6270 258.5099 13.12444251268768
ONEWEB-0109             
1 47259U 20100B   26198.86601564  .00000256  00000+0  67759-3 0  9991
2 47259  87.8976 344.5602 0002010  97.5296 262.6061 13.12442816268583
ONEWEB-0110             
1 47260U 20100C   26198.89312250 -.00000347  00000+0 -99973-3 0  9993
2 47260  87.8975 344.5390 0001843 105.4637 254.6695 13.12443377268755
ONEWEB-0111             
1 47261U 20100D   26198.92362042  .00000278  00000+0  73614-3 0  9997
2 47261  87.8975 344.5517 0001783  98.3180 261.8150 13.12443759268595
ONEWEB-0114             
1 47262U 20100E   26198.87787113  .00000001  00000+0 -32366-4 0  9997
2 47262  87.8978 344.5590 0002052  95.6200 264.5163 13.12442421268547
ONEWEB-0117             
1 47263U 20100F   26198.86940499  .00000216  00000+0  56508-3 0  9995
2 47263  87.8974 344.5503 0001875  99.1991 260.9349 13.12441870268550
ONEWEB-0118             
1 47264U 20100G   26198.90328556 -.00000278  00000+0 -80749-3 0  9999
2 47264  87.8971 344.5466 0001947  87.1369 272.9982 13.12442945268754
ONEWEB-0119             
1 47265U 20100H   26198.92870633  .00000388  00000+0  10422-2 0  9990
2 47265  87.8964 344.5554 0001890  96.4334 263.7010 13.12442822268739
ONEWEB-0120             
1 47266U 20100J   26198.87631894 -.00000033  00000+0 -12607-3 0  9996
2 47266  87.8966 344.5668 0002067  97.6587 262.4777 13.12441047268754
ONEWEB-0121             
1 47267U 20100K   26198.86432253  .00000375  00000+0  10081-2 0  9994
2 47267  87.8975 344.5586 0001604 101.9568 258.1741 13.12442044268669
ONEWEB-0122             
1 47268U 20100L   26198.93463316  .00000427  00000+0  11515-2 0  9998
2 47268  87.8977 344.5493 0002026 101.3187 258.8170 13.12441368268581
ONEWEB-0123             
1 47269U 20100M   26198.93039543  .00000431  00000+0  11622-2 0  9994
2 47269  87.8962 344.5542 0001876  93.5218 266.6125 13.12442671268721
ONEWEB-0124             
1 47270U 20100N   26198.84399209  .00000204  00000+0  53055-3 0  9999
2 47270  87.8962 344.5738 0001764  97.4951 262.6378 13.12443269268598
ONEWEB-0125             
1 47271U 20100P   26198.89819497 -.00000410  00000+0 -11748-2 0  9994
2 47271  87.8975 344.5501 0001568  92.4198 267.7111 13.12443609268668
ONEWEB-0126             
1 47272U 20100Q   26198.91868439  .00000176  00000+0  45385-3 0  9990
2 47272  87.8968 344.5598 0001991  94.6183 265.5173 13.12443289268731
ONEWEB-0127             
1 47273U 20100R   26198.88464484 -.00000123  00000+0 -37810-3 0  9997
2 47273  87.8962 344.5639 0002029  95.8531 264.2829 13.12442705268753
ONEWEB-0128             
1 47274U 20100S   26198.90666986 -.00000244  00000+0 -71228-3 0  9997
2 47274  87.8963 344.5731 0001848 106.3764 253.7568 13.12444364268770
ONEWEB-0129             
1 47275U 20100T   26198.88634218 -.00000282  00000+0 -81957-3 0  9990
2 47275  87.8973 344.5538 0002946  90.4536 269.6930 13.12441794268703
