OBJECT_NAME,OBJECT_ID,EPOCH,MEAN_MOTION,ECCENTRICITY,INCLINATION,RA_OF_ASC_NODE,ARG_OF_PERICENTER,MEAN_ANOMALY,EPHEMERIS_TYPE,CLASSIFICATION_TYPE,NORAD_CAT_ID,ELEMENT_SET_NO,REV_AT_EPOCH,BSTAR,MEAN_MOTION_DOT,MEAN_MOTION_DDOT
ONEWEB-0068,2020-020Y,2026-07-17T21:37:20.992224,13.11417950,.00016757,87.8894,14.9494,93.3053,266.8266,0,U,45446,999,30662,-.91387508E-3,-.311E-5,0
ONEWEB-0046,2020-020Z,2026-07-17T21:25:19.623072,13.11415998,.00016043,87.8884,14.9548,84.9584,275.1727,0,U,45447,999,30663,-.11149016E-2,-.382E-5,0
ONEWEB-0063,2020-020AA,2026-07-17T22:07:03.230688,13.11418266,.00018877,87.8896,14.9507,81.9772,278.1570,0,U,45448,999,30672,-.73544976E-4,-.13E-6,0
ONEWEB-0019,2020-020AB,2026-07-17T21:12:56.630592,13.11414504,.00019914,87.8888,14.9425,96.0953,264.0402,0,U,45449,999,30656,-.77250535E-4,-.15E-6,0
ONEWEB-0094,2020-020AC,2026-07-17T21:08:52.605024,13.17648968,.00018317,87.9156,359.7458,100.7472,259.3866,0,U,45450,999,31035,-.9120957E-5,.9E-7,0
ONEWEB-0087,2020-020AD,2026-07-17T22:21:18.572544,13.11417744,.00016031,87.8902,14.9254,96.5823,263.5487,0,U,45451,999,30661,.11736565E-2,.429E-5,0
ONEWEB-0082,2020-020AE,2026-07-17T22:16:25.418208,13.11418984,.00013576,87.8895,14.9401,90.3917,269.7367,0,U,45452,999,30670,.8012262E-3,.297E-5,0
ONEWEB-0050,2020-020AF,2026-07-17T13:21:56.492640,14.90475850,.0002584,88.9279,229.0850,168.1524,191.9767,0,U,45453,999,34490,.68218E-4,.687E-5,0
ONEWEB-0034,2020-020AG,2026-07-17T21:20:41.404704,13.11414631,.00017939,87.8892,14.9569,89.8235,270.3099,0,U,45454,999,30661,-.84270933E-3,-.286E-5,0
ONEWEB-0060,2020-020AH,2026-07-17T22:05:38.173344,13.11418369,.00013388,87.8890,14.9463,123.4379,236.6877,0,U,45455,999,30657,-.41930201E-4,-.2E-7,0
ONEWEB-0086,2020-020AJ,2026-07-17T21:34:54.063840,13.11417081,.00019366,87.8893,14.9484,114.3494,245.7836,0,U,45456,999,30663,-.14741806E-2,-.51E-5,0
ONEWEB-0088,2020-020AK,2026-07-17T22:53:14.141760,13.11414600,.00016873,87.8902,14.9125,79.2076,280.9242,0,U,45457,999,30657,.65658534E-3,.245E-5,0
ONEWEB-0102,2020-100A,2026-07-17T22:24:39.068928,13.12444251,.00021463,87.8961,344.5614,101.6270,258.5099,0,U,47258,999,26876,.41855067E-3,.163E-5,0
ONEWEB-0109,2020-100B,2026-07-17T20:47:03.751296,13.12442816,.00020104,87.8976,344.5602,97.5296,262.6061,0,U,47259,999,26858,.67759197E-3,.256E-5,0
ONEWEB-0110,2020-100C,2026-07-17T21:26:05.784000,13.12443377,.00018437,87.8975,344.5390,105.4637,254.6695,0,U,47260,999,26875,-.99973096E-3,-.347E-5,0
ONEWEB-0111,2020-100D,2026-07-17T22:10:00.804288,13.12443759,.00017832,87.8975,344.5517,98.3180,261.8150,0,U,47261,999,26859,.73613664E-3,.278E-5,0
ONEWEB-0114,2020-100E,2026-07-17T21:04:08.065632,13.12442421,.0002052,87.8978,344.5590,95.6200,264.5163,0,U,47262,999,26854,-.32366179E-4,.1E-7,0
ONEWEB-0117,2020-100F,2026-07-17T20:51:56.591136,13.12441870,.00018754,87.8974,344.5503,99.1991,260.9349,0,U,47263,999,26855,.56508104E-3,.216E-5,0
ONEWEB-0118,2020-100G,2026-07-17T21:40:43.872384,13.12442945,.00019475,87.8971,344.5466,87.1369,272.9982,0,U,47264,999,26875,-.80749109E-3,-.278E-5,0
ONEWEB-0119,2020-100H,2026-07-17T22:17:20.226912,13.12442822,.00018904,87.8964,344.5554,96.4334,263.7010,0,U,47265,999,26873,.10422368E-2,.388E-5,0
ONEWEB-0120,2020-100J,2026-07-17T21:01:53.956416,13.12441047,.00020674,87.8966,344.5668,97.6587,262.4777,0,U,47266,999,26875,-.12607229E-3,-.33E-6,0
ONEWEB-0121,2020-100K,2026-07-17T20:44:37.466592,13.12442044,.00016049,87.8975,344.5586,101.9568,258.1741,0,U,47267,999,26866,.10080903E-2,.375E-5,0
ONEWEB-0122,2020-100L,2026-07-17T22:25:52.305024,13.12441368,.0002026,87.8977,344.5493,101.3187,258.8170,0,U,47268,999,26858,.11514961E-2,.427E-5,0
ONEWEB-0123,2020-100M,2026-07-17T22:19:46.165152,13.12442671,.00018761,87.8962,344.5542,93.5218,266.6125,0,U,47269,999,26872,.11622264E-2,.431E-5,0
ONEWEB-0124,2020-100N,2026-07-17T20:15:20.916576,13.12443269,.00017648,87.8962,344.5738,97.4951,262.6378,0,U,47270,999,26859,.53055159E-3,.204E-5,0
ONEWEB-0125,2020-100P,2026-07-17T21:33:24.045408,13.12443609,.00015685,87.8975,344.5501,92.4198,267.7111,0,U,47271,999,26866,-.1174781E-2,-.41E-5,0
ONEWEB-0126,2020-100Q,2026-07-17T22:02:54.331296,13.12443289,.00019918,87.8968,344.5598,94.6183,265.5173,0,U,47272,999,26873,.4538481E-3,.176E-5,0
ONEWEB-0127,2020-100R,2026-07-17T21:13:53.314176,13.12442705,.00020298,87.8962,344.5639,95.8531,264.2829,0,U,47273,999,26875,-.37809953E-3,-.123E-5,0
ONEWEB-0128,2020-100S,2026-07-17T21:45:36.275904,13.12444364,.0001848,87.8963,344.5731,106.3764,253.7568,0,U,47274,999,26877,-.71227974E-3,-.244E-5,0
ONEWEB-0129,2020-100T,2026-07-17T21:16:19.964352,13.12441794,.00029466,87.8973,344.5538,90.4536,269.6930,0,U,47275,999,26870,-.81957266E-3,-.282E-5,0
